NORAD_CAT_ID,OBJECT_NAME,OBJECT_TYPE,EPOCH,MEAN_MOTION,ECCENTRICITY,INCLINATION,RA_OF_ASC_NODE,ARG_OF_PERICENTER,MEAN_ANOMALY,BSTAR,MEAN_MOTION_DOT,MEAN_MOTION_DDOT,TLE_LINE0,TLE_LINE1,TLE_LINE2,SEMIMAJOR_AXIS,PERIOD,APOGEE,PERIGEE,DECAYED
53589.0,STARLINK-4673,PAYLOAD,2022-09-21 22:00:00,15.53434857,0.0001345,53.2172,165.9284,114.0978,108.2167,-0.020005,-0.01160804,0.0,0 STARLINK-4673,1 53589U 22104B   22264.91667824 -.01160804  00000-0 -20005-1 0  9998,2 53589  53.2172 165.9284 0001345 114.0978 108.2167 15.53434857  1304,6784.843000000003,92.698,407.621,405.796,0.0
53589.0,STARLINK-4673,PAYLOAD,2022-09-22 14:00:01,15.51791204,0.0001056,53.2173,162.7278,94.8855,255.7754,-0.0202439999999999,-0.01111547,0.0,0 STARLINK-4673,1 53589U 22104B   22265.58334491 -.01111547  00000-0 -20244-1 0  9998,2 53589  53.2173 162.7278 0001056  94.8855 255.7754 15.51791204  1301,6789.6330000000025,92.796,412.215,410.781,0.0
53589.0,STARLINK-4673,PAYLOAD,2022-09-22 22:00:00,15.50934586,0.0001245,53.2174,161.1326,97.36,316.0251,-0.018246,-0.00983211,0.0,0 STARLINK-4673,1 53589U 22104B   22265.91667824 -.00983211  00000-0 -18246-1 0  9997,2 53589  53.2174 161.1326 0001245  97.3600 316.0251 15.50934586  4087,6792.1330000000025,92.847,414.844,413.152,0.0
53589.0,STARLINK-4673,PAYLOAD,2022-09-23 06:00:00,15.50122787,0.0001281,53.2172,159.5381,94.8826,20.2533,-0.006148,-0.00337601,0.0,0 STARLINK-4673,1 53589U 22104B   22266.25001157 -.00337601  00000-0 -61480-2 0  9991,2 53589  53.2172 159.5381 0001281  94.8826  20.2533 15.50122787  4134,6794.504,92.896,417.24,415.499,0.0
53589.0,STARLINK-4673,PAYLOAD,2022-09-23 14:00:01,15.49885576,0.0001202,53.2173,157.94299999999996,105.1208,71.0626,-1.0722e-05,-1.06e-05,0.0,0 STARLINK-4673,1 53589U 22104B   22266.58334491 -.00001060  00000-0 -10722-4 0  9999,2 53589  53.2173 157.9430 0001202 105.1208  71.0626 15.49885576  4187,6795.196999999999,92.91,417.879,416.246,0.0
53589.0,STARLINK-4673,PAYLOAD,2022-09-23 22:00:00,15.4986546,5.870000000000001e-05,53.2157,156.3553,91.9126,145.0126,-0.0001876999999999,-0.00011081,0.0,0 STARLINK-4673,1 53589U 22104B   22266.91667824 -.00011081  00000-0 -18770-3 0  9999,2 53589  53.2157 156.3553 0000587  91.9126 145.0126 15.49865460  4237,6795.255999999999,92.911,417.52,416.722,0.0
53589.0,STARLINK-4673,PAYLOAD,2022-09-24 14:00:01,15.49854886,5.64e-05,53.2152,153.1678,114.6188,244.1635,0.0011371999999999,0.00064556,0.0,0 STARLINK-4673,1 53589U 22104B   22267.58335648  .00064556  00000-0  11372-2 0  9992,2 53589  53.2152 153.1678 0000564 114.6188 244.1635 15.49854886  4338,6795.2869999999975,92.912,417.535,416.769,0.0
53589.0,STARLINK-4673,PAYLOAD,2022-09-24 22:00:00,15.49905365,5.59e-05,53.2153,151.5765,95.4122,324.209,-0.00022974,-0.00013476,0.0,0 STARLINK-4673,1 53589U 22104B   22267.91667824 -.00013476  00000-0 -22974-3 0  9991,2 53589  53.2153 151.5765 0000559  95.4122 324.2090 15.49905365  1304,6795.14,92.909,417.385,416.625,0.0
53589.0,STARLINK-4673,PAYLOAD,2022-09-25 06:00:00,15.49932234,7.04e-05,53.2152,149.9835,99.0942,21.3938,1.9259e-05,6.44e-06,0.0,0 STARLINK-4673,1 53589U 22104B   22268.25001157  .00000644  00000-0  19259-4 0  9994,2 53589  53.2152 149.9835 0000704  99.0942  21.3938 15.49932234  4443,6795.061,92.907,417.404,416.448,0.0
53589.0,STARLINK-4673,PAYLOAD,2022-09-25 14:00:01,15.49917463,7.87e-05,53.2155,148.3877,120.1299,61.3336,0.00093641,0.00053117,0.0,0 STARLINK-4673,1 53589U 22104B   22268.58334491  .00053117  00000-0  93641-3 0  9999,2 53589  53.2155 148.3877 0000787 120.1299  61.3336 15.49917463  1302,6795.104,92.908,417.504,416.435,0.0
53589.0,STARLINK-4673,PAYLOAD,2022-09-25 22:00:01,15.49954617,7.58e-05,53.2158,146.7969,99.9045,142.5988,-4.711e-05,-3.13e-05,0.0,0 STARLINK-4673,1 53589U 22104B   22268.91668981 -.00003130  00000-0 -47110-4 0  9993,2 53589  53.2158 146.7969 0000758  99.9045 142.5988 15.49954617  1306,6794.996,92.906,417.376,416.346,0.0
53589.0,STARLINK-4673,PAYLOAD,2022-09-26 10:00:00,15.49963588,8.23e-05,53.216,144.4054,102.9279,51.0047,-0.001372,-0.00077763,0.0,0 STARLINK-4673,1 53589U 22104B   22269.41667824 -.00077763  00000-0 -13720-2 0  9995,2 53589  53.2160 144.4054 0000823 102.9279  51.0047 15.49963588  4621,6794.969,92.905,417.394,416.275,0.0
53589.0,STARLINK-4673,PAYLOAD,2022-09-26 14:00:01,15.49931155,9.04e-05,53.2159,143.6071,104.8848,259.5449,-0.0010614,-0.00060325,0.0,0 STARLINK-4673,1 53589U 22104B   22269.58334491 -.00060325  00000-0 -10614-2 0  9999,2 53589  53.2159 143.6071 0000904 104.8848 259.5449 15.49931155  1300,6795.064,92.907,417.544,416.315,0.0
53589.0,STARLINK-4673,PAYLOAD,2022-09-26 22:00:00,15.49892945,0.0001198,53.2172,142.0147,116.9782,308.4223,-0.012064,-0.00632625,0.0,0 STARLINK-4673,1 53589U 22104B   22269.91667824 -.00632625  00000-0 -12064-1 0  9993,2 53589  53.2172 142.0147 0001198 116.9782 308.4223 15.49892945  4703,6795.176,92.91,417.855,416.227,0.0
53589.0,STARLINK-4673,PAYLOAD,2022-09-27 06:00:00,15.49269881,0.0001363,53.2171,140.4209,76.8295,49.3429,-0.015293,-0.00781266,0.0,0 STARLINK-4673,1 53589U 22104B   22270.25001157 -.00781266  00000-0 -15293-1 0  9996,2 53589  53.2171 140.4209 0001363  76.8295  49.3429 15.49269881  4751,6796.998000000001,92.947,419.789,417.936,0.0
53589.0,STARLINK-4673,PAYLOAD,2022-09-27 14:00:01,15.48706299,0.0001294,53.2174,138.8281,88.6721,97.3521,-0.022691,-0.01115493,0.0,0 STARLINK-4673,1 53589U 22104B   22270.58334491 -.01115493  00000-0 -22691-1 0  9996,2 53589  53.2174 138.8281 0001294  88.6721  97.3521 15.48706299  1305,6798.647,92.981,421.391,419.632,0.0
53589.0,STARLINK-4673,PAYLOAD,2022-09-27 22:00:01,15.47901824,0.0001284999999999,53.2175,137.2407,87.3057,157.7876,-0.0232789999999999,-0.01128934,0.0,0 STARLINK-4673,1 53589U 22104B   22270.91668981 -.01128934  00000-0 -23279-1 0  9994,2 53589  53.2175 137.2407 0001285  87.3057 157.7876 15.47901824  1301,6801.002,93.029,423.741,421.99300000000005,0.0
53589.0,STARLINK-4673,PAYLOAD,2022-09-28 14:00:01,15.46294573,0.0001123,53.2174,134.066,106.9215,253.2247,-0.024555,-0.01126087,0.0,0 STARLINK-4673,1 53589U 22104B   22271.58334491 -.01126087  00000-0 -24555-1 0  9999,2 53589  53.2174 134.0660 0001123 106.9215 253.2247 15.46294573  4954,6805.714,93.126,428.343,426.815,0.0
53589.0,STARLINK-4673,PAYLOAD,2022-09-28 22:00:00,15.45486367,0.0001176,53.217,132.4849,104.9895,311.2682,-0.025061,-0.01118319,0.0,0 STARLINK-4673,1 53589U 22104B   22271.91667824 -.01118319  00000-0 -25061-1 0  9997,2 53589  53.2170 132.4849 0001176 104.9895 311.2682 15.45486367  1308,6808.0859999999975,93.175,430.752,429.151,0.0
53589.0,STARLINK-4673,PAYLOAD,2022-09-29 06:00:00,15.44690599,0.0001227,53.2172,130.9021,109.0645,2.337,-0.02601,-0.01128427,0.0,0 STARLINK-4673,1 53589U 22104B   22272.25001157 -.01128427  00000-0 -26010-1 0  9992,2 53589  53.2172 130.9021 0001227 109.0645   2.3370 15.44690599  5063,6810.424,93.223,433.125,431.454,0.0
53589.0,STARLINK-4673,PAYLOAD,2022-09-29 14:00:01,15.43896697,0.000122,53.2167,129.3218,89.2147,76.3632,-0.027022,-0.01139872,0.0,0 STARLINK-4673,1 53589U 22104B   22272.58334491 -.01139872  00000-0 -27022-1 0  9998,2 53589  53.2167 129.3218 0001220  89.2147  76.3632 15.43896697  1307,6812.759,93.27,435.455,433.793,0.0
53589.0,STARLINK-4673,PAYLOAD,2022-09-29 20:00:01,15.43285199,0.0001238,53.2172,128.1393,84.6919,30.9576,-0.027275,-0.01127935,0.0,0 STARLINK-4673,1 53589U 22104B   22272.83335648 -.01127935  00000-0 -27275-1 0  9998,2 53589  53.2172 128.1393 0001238  84.6919  30.9576 15.43285199  5158,6814.558000000001,93.307,437.267,435.58,0.0
53589.0,STARLINK-4673,PAYLOAD,2022-09-29 22:00:00,15.43138789,0.0001443999999999,53.217,127.7459,102.0697,116.7004,-0.029314,-0.01199347,0.0,0 STARLINK-4673,1 53589U 22104B   22272.91667824 -.01199347  00000-0 -29314-1 0  9993,2 53589  53.2170 127.7459 0001444 102.0697 116.7004 15.43138789  1305,6814.989000000001,93.316,437.838,435.87,0.0
53589.0,STARLINK-4673,PAYLOAD,2022-09-30 14:00:01,15.41489593,0.0001165,53.2168,124.5941,70.5195,251.8112,-0.029316,-0.0113991,0.0,0 STARLINK-4673,1 53589U 22104B   22273.58334491 -.01139910  00000-0 -29316-1 0  9990,2 53589  53.2168 124.5941 0001165  70.5195 251.8112 15.41489593  5265,6819.849,93.416,442.509,440.92,0.0
53589.0,STARLINK-4673,PAYLOAD,2022-09-30 22:00:00,15.40685244,0.0001104,53.2172,123.0241,91.6196,281.0339,-0.030133,-0.01140495,0.0,0 STARLINK-4673,1 53589U 22104B   22273.91667824 -.01140495  00000-0 -30133-1 0  9995,2 53589  53.2172 123.0241 0001104  91.6196 281.0339 15.40685244  1302,6822.223000000001,93.465,444.841,443.335,0.0
53589.0,STARLINK-4673,PAYLOAD,2022-10-01 14:00:01,15.3910063,0.0001318,53.217,119.8837,68.8691,41.5233,-0.032558,-0.01166696,0.0,0 STARLINK-4673,1 53589U 22104B   22274.58334491 -.01166696  00000-0 -32558-1 0  9994,2 53589  53.2170 119.8837 0001318  68.8691  41.5233 15.39100630  5425,6826.905,93.561,449.669,447.87,0.0
53589.0,STARLINK-4673,PAYLOAD,2022-10-01 22:00:00,15.38276266,0.0001393,53.2174,118.3194,85.262,72.5681,-0.032582,-0.01138901,0.0,0 STARLINK-4673,1 53589U 22104B   22274.91667824 -.01138901  00000-0 -32582-1 0  9995,2 53589  53.2174 118.3194 0001393  85.2620  72.5681 15.38276266  1309,6829.343000000003,93.611,452.16,450.257,0.0
53589.0,STARLINK-4673,PAYLOAD,2022-10-02 14:00:01,15.36676128,0.0001320999999999,53.217,115.1907,82.8128,166.9752,-0.034533,-0.01145036,0.0,0 STARLINK-4673,1 53589U 22104B   22275.58334491 -.01145036  00000-0 -34533-1 0  9995,2 53589  53.2170 115.1907 0001321  82.8128 166.9752 15.36676128  1305,6834.083000000001,93.709,456.851,455.046,0.0
53589.0,STARLINK-4673,PAYLOAD,2022-10-02 22:00:00,15.35884431,0.0001196,53.2173,113.6322,92.7573,201.5567,-0.03594,-0.01160034,0.0,0 STARLINK-4673,1 53589U 22104B   22275.91667824 -.01160034  00000-0 -35940-1 0  9999,2 53589  53.2173 113.6322 0001196  92.7573 201.5567 15.35884431  5622,6836.432,93.757,459.114,457.479,0.0
